GSAT0207 (GALILEO 15)
1 41859U 16069A   25354.42402807 -.00000002  00000+0  00000+0 0  9996
2 41859  55.3864 106.0375 0002388 318.3578  41.5905  1.70474490 56357